      3.03          N: GNSS NAV DATA    E: Galileo          RINEX VERSION / TYPE
SKYDEL              SAFRAN              08-Jan-23 09:59     PGM / RUN BY / DATE
GPSA   4.6570D-09  1.4900D-08 -5.9600D-08 -1.1920D-07       IONOSPHERIC CORR
GPSB   8.1920D+04  8.1920D+04 -6.5540D+04 -5.2430D+05       IONOSPHERIC CORR
                                                            END OF HEADER
E05 2023 01 08 12 20 00-1.070055295714E-04 3.637978807092E-12 0.000000000000E+00
     1.700000000000E+01-7.115625000000E+01 2.901192274875E-09 4.307083496954E-01
    -3.378838300705E-06 8.328328840435E-05 1.161918044090E-05 5.440624168396E+03
     4.440000000000E+04 5.029141902924E-08 5.003884189290E-01-6.705522537231E-08
     9.580725931006E-01 9.087500000000E+01 2.519844678400E+00-5.278076995950E-09
     3.700154126271E-10 3.000000000000E+00 2.244000000000E+03 0.000000000000E+00
     3.120000000000E+00 0.000000000000E+00 3.958120942116E-09 0.000000000000E+00
     9.999000000000E+08 0.000000000000E+00 0.000000000000E+00 0.000000000000E+00
E07 2023 01 08 12 20 00-1.370820609737E-05-2.984279490192E-12 0.000000000000E+00
     1.700000000000E+01-9.993750000000E+01 2.850475876619E-09 7.809954040723E-01
    -4.569068551064E-06 6.773904897273E-05 1.245178282261E-05 5.440616287231E+03
     4.440000000000E+04 0.000000000000E+00 5.004381205793E-01 2.235174179077E-08
     9.581040730861E-01 7.059375000000E+01-1.904735709259E-01-5.279148469152E-09
     4.600191616446E-10 3.000000000000E+00 2.244000000000E+03 0.000000000000E+00
     3.120000000000E+00 0.000000000000E+00 5.820766091347E-09 0.000000000000E+00
     9.999000000000E+08 0.000000000000E+00 0.000000000000E+00 0.000000000000E+00
E08 2023 01 08 12 20 00-1.637419518374E-05-6.181721801113E-12 0.000000000000E+00
     1.700000000000E+01-9.246875000000E+01 2.665111012571E-09 5.640848585943E-01
    -4.282221198082E-06 1.564664999023E-04 1.270510256290E-05 5.440617366791E+03
     4.440000000000E+04-9.313225746155E-09 4.981331557825E-01 6.519258022308E-08
     9.639888222552E-01 6.900000000000E+01 8.247989550443E-01-5.183073038654E-09
     4.893060958486E-10 3.000000000000E+00 2.244000000000E+03 0.000000000000E+00
     3.120000000000E+00 0.000000000000E+00-3.492459654808E-09 0.000000000000E+00
     9.999000000000E+08 0.000000000000E+00 0.000000000000E+00 0.000000000000E+00
E09 2023 01 08 12 20 00-7.933821325423E-04-1.352873368887E-11 0.000000000000E+00
     1.700000000000E+01-7.640625000000E+01 2.778330014311E-09-2.917958361542E+00
    -3.546476364136E-06 1.653386279941E-04 1.127459108829E-05 5.440614549637E+03
     4.440000000000E+04 3.911554813385E-08 4.981660158199E-01-3.725290298462E-09
     9.640156606760E-01 1.001250000000E+02 3.749392313468E-01-5.272005314468E-09
     4.028739241732E-10 3.000000000000E+00 2.244000000000E+03 0.000000000000E+00
     3.120000000000E+00 0.000000000000E+00 2.328306436539E-09 0.000000000000E+00
     9.999000000000E+08 0.000000000000E+00 0.000000000000E+00 0.000000000000E+00
E10 2023 01 08 12 20 00-5.037316786911E-04-2.742694960034E-12 0.000000000000E+00
     1.700000000000E+01 9.675000000000E+01 2.736542559410E-09 2.869859229472E+00
     4.526227712631E-06 7.832283154130E-05-3.725290298462E-08 5.440604570389E+03
     4.440000000000E+04-4.097819328308E-08-1.600084297842E+00 3.166496753693E-08
     9.985013644812E-01 3.596875000000E+02-2.901874062177E+00-5.668807557160E-09
     1.728643433509E-10 3.000000000000E+00 2.244000000000E+03 0.000000000000E+00
     3.120000000000E+00 0.000000000000E+00 6.984919309616E-10 0.000000000000E+00
     9.999000000000E+08 0.000000000000E+00 0.000000000000E+00 0.000000000000E+00
E11 2023 01 08 12 20 00 3.772005169935E-04 1.673230443089E-10-3.469446951954E-18
     1.700000000000E+01 9.215625000000E+01 2.806188317579E-09-6.438119197434E-01
     4.360452294350E-06 2.582393353805E-04-1.303851604462E-07 5.440604492188E+03
     4.440000000000E+04 2.793967723846E-08-1.596089663123E+00 6.146728992462E-08
     9.954990226444E-01 3.601250000000E+02 1.801551240240E-01-5.737024684392E-09
     1.514348792991E-10 3.000000000000E+00 2.244000000000E+03 0.000000000000E+00
     3.120000000000E+00 0.000000000000E+00-1.303851604462E-08 0.000000000000E+00
     9.999000000000E+08 0.000000000000E+00 0.000000000000E+00 0.000000000000E+00
E12 2023 01 08 12 20 00-3.773429361899E-04-1.357136625302E-11 0.000000000000E+00
     1.700000000000E+01 9.762500000000E+01 2.779044329780E-09 8.022046668089E-01
     4.537403583527E-06 3.509486559778E-04-3.725290298462E-08 5.440608392715E+03
     4.440000000000E+04-3.166496753693E-08-1.596095567724E+00 1.676380634308E-08
     9.955119416739E-01 3.580937500000E+02-4.487399111099E-01-5.687736917073E-09
     1.514348792991E-10 3.000000000000E+00 2.244000000000E+03 0.000000000000E+00
     3.120000000000E+00 0.000000000000E+00-1.024454832077E-08 0.000000000000E+00
     9.999000000000E+08 0.000000000000E+00 0.000000000000E+00 0.000000000000E+00
E13 2023 01 08 12 20 00 4.300411419535E-04-1.421085471520E-13 0.000000000000E+00
     1.700000000000E+01 1.165625000000E+02 2.840475460061E-09-2.355714053109E+00
     5.425885319710E-06 3.172722645104E-04-8.102506399155E-07 5.440606861115E+03
     4.440000000000E+04 1.490116119385E-08-1.598251770916E+00 9.313225746155E-09
     9.986241089311E-01 3.747812500000E+02-1.212799190686E+00-5.789526871319E-09
     2.132231673151E-10 3.000000000000E+00 2.244000000000E+03 0.000000000000E+00
     3.120000000000E+00 0.000000000000E+00 2.328306436539E-10 0.000000000000E+00
     9.999000000000E+08 0.000000000000E+00 0.000000000000E+00 0.000000000000E+00
E14 2023 01 08 12 20 00 1.081221998902E-04 1.080024958355E-11 0.000000000000E+00
     1.700000000000E+01 1.840625000000E+01 6.442411209429E-09 5.713324730855E-01
     3.725290298462E-08 3.125000000000E-02 7.608905434608E-06 5.289332092285E+03
     4.440000000000E+04 7.171183824539E-07-2.514266698774E+00-3.004446625710E-06
     8.756434111600E-01 1.935625000000E+02 2.308658557399E+00-1.028757137578E-08
     2.625109346341E-10 3.000000000000E+00 2.244000000000E+03 0.000000000000E+00
     3.120000000000E+00 8.000000000000E+00-3.259629011154E-09 0.000000000000E+00
     9.999000000000E+08 0.000000000000E+00 0.000000000000E+00 0.000000000000E+00
E15 2023 01 08 12 20 00 6.954242799111E-04-2.515321284591E-12 0.000000000000E+00
     1.700000000000E+01 1.109375000000E+02 2.764758020412E-09-1.463839517331E+00
     5.116686224937E-06 3.691689344123E-04-1.000240445137E-06 5.440606000900E+03
     4.440000000000E+04-2.048909664154E-08-1.598307718475E+00-2.980232238770E-08
     9.985820659456E-01 3.792812500000E+02-1.310984333200E+00-5.750596678291E-09
     1.975082270104E-10 3.000000000000E+00 2.244000000000E+03 0.000000000000E+00
     3.120000000000E+00 0.000000000000E+00 5.587935447693E-09 0.000000000000E+00
     9.999000000000E+08 0.000000000000E+00 0.000000000000E+00 0.000000000000E+00
E18 2023 01 08 12 20 00-5.312230496202E-04 4.433786671143E-11 0.000000000000E+00
     1.700000000000E+01 4.368125000000E+02 5.136642533208E-09-2.660149650154E+00
     1.783296465874E-05 3.125000000000E-02 9.965151548386E-06 5.289383945465E+03
     4.440000000000E+04-1.303851604462E-07-2.498161003356E+00 2.579763531685E-06
     8.752498437263E-01 9.462500000000E+01 2.294547068204E+00-5.467013437339E-09
     1.000041655749E-11 3.000000000000E+00 2.244000000000E+03 0.000000000000E+00
     3.120000000000E+00 8.000000000000E+00-6.984919309616E-10 0.000000000000E+00
     9.999000000000E+08 0.000000000000E+00 0.000000000000E+00 0.000000000000E+00
E19 2023 01 08 12 20 00-3.534142904755E-03 9.534062428429E-11 0.000000000000E+00
     1.700000000000E+01-9.000000000000E+01 2.746542975968E-09 1.984159910967E+00
    -4.086643457413E-06 1.528203720227E-04 1.131556928158E-05 5.440625656128E+03
     4.440000000000E+04-3.539025783539E-08 5.033078140821E-01 1.862645149231E-09
     9.637165799210E-01 1.007187500000E+02-2.863195941821E+00-5.198787978958E-09
     3.953736117551E-10 3.000000000000E+00 2.244000000000E+03 0.000000000000E+00
     3.120000000000E+00 0.000000000000E+00-3.492459654808E-09 0.000000000000E+00
     9.999000000000E+08 0.000000000000E+00 0.000000000000E+00 0.000000000000E+00
E21 2023 01 08 12 20 00-5.051558800915E-04-2.188471626141E-12 0.000000000000E+00
     1.700000000000E+01-1.653125000000E+01 3.198704667460E-09-2.816325288997E+00
    -7.487833499908E-07 2.376446500421E-04 7.925555109978E-06 5.440611652374E+03
     4.440000000000E+04-9.313225746155E-09 2.598450012604E+00-1.303851604462E-08
     9.707521804562E-01 1.757812500000E+02 5.159745961387E-01-5.385938631677E-09
    -5.914532078287E-10 3.000000000000E+00 2.244000000000E+03 0.000000000000E+00
     3.120000000000E+00 0.000000000000E+00 2.328306436539E-09 0.000000000000E+00
     9.999000000000E+08 0.000000000000E+00 0.000000000000E+00 0.000000000000E+00
E24 2023 01 08 12 20 00-1.047629730237E-03-2.098943241435E-11 0.000000000000E+00
     1.700000000000E+01-1.715625000000E+01 3.218348342841E-09 9.846366684670E-01
    -8.828938007355E-07 7.335821865126E-04 7.871538400650E-06 5.440620594025E+03
     4.440000000000E+04-1.862645149231E-09 2.602294584975E+00-9.313225746155E-09
     9.686368458526E-01 1.779687500000E+02 6.866562298739E-01-5.443083869148E-09
    -5.553802766749E-10 3.000000000000E+00 2.244000000000E+03 0.000000000000E+00
     3.120000000000E+00 0.000000000000E+00-2.095475792885E-09 0.000000000000E+00
     9.999000000000E+08 0.000000000000E+00 0.000000000000E+00 0.000000000000E+00
